ONEWEB-0317             
1 49103U 21075AE  24063.79716208  .00000178  00000+0  46056-3 0  9996
2 49103  87.9036 156.9307 0001672 106.3536 253.7776 13.12440756125618
ONEWEB-0318             
1 49104U 21075AF  24063.75606216  .00000020  00000+0  18783-4 0  9993
2 49104  87.9221 141.7388 0002260 110.8737 249.2637 13.18687098127068
ONEWEB-0319             
1 49105U 21075AG  24064.25532639  .00000005  00000+0 -20515-4 0  9997
2 49105  87.9262 171.9683 0002220 120.5693 239.5658 13.17649245124649
ONEWEB-0323             
1 49106U 21075AH  24064.24505939  .00000494  00000+0  13378-2 0  9998
2 49106  87.9035 156.8300 0002047 114.1246 246.0096 13.12442617126039
ONEWEB-0329             
1 49107U 21075AJ  24063.80761716  .00000016  00000+0  91829-5 0  9997
2 49107  87.9262 172.0601 0001780 114.6149 245.5169 13.17649832124560
ONEWEB-0330             
1 49108U 21075AK  24063.80919815  .00000063  00000+0  13006-3 0  9994
2 49108  87.9262 172.0601 0001614 115.0066 245.1233 13.17650610123619
ONEWEB-0292             
1 49186U 21083A   24064.18168012 -.00000004  00000+0 -45765-4 0  9991
2 49186  87.8966 126.4806 0002141 103.0427 257.0942 13.13469569122603
ONEWEB-0303             
1 49187U 21083B   24064.20816016  .00000053  00000+0  10097-3 0  9990
2 49187  87.9220 141.6478 0002221 110.2236 249.9135 13.18684249121218
